[{"OBJECT_NAME":"ONEWEB-0629","OBJECT_ID":"2023-004AG","EPOCH":"2026-06-19T05:45:10.735776","MEAN_MOTION":13.17648342,"ECCENTRICITY":0.000184,"INCLINATION":87.913,"RA_OF_ASC_NODE":5.462,"ARG_OF_PERICENTER":78.6536,"MEAN_ANOMALY":281.4802,"EPHEMERIS_TYPE":0,"CLASSIFICATION_TYPE":"U","NORAD_CAT_ID":55170,"ELEMENT_SET_NO":999,"REV_AT_EPOCH":16785,"BSTAR":0.00011586,"MEAN_MOTION_DOT":5.8e-07,"MEAN_MOTION_DDOT":0.0},{"OBJECT_NAME":"ONEWEB-0631","OBJECT_ID":"2023-004AH","EPOCH":"2026-06-18T22:08:25.790208","MEAN_MOTION":13.1868505,"ECCENTRICITY":0.0002276,"INCLINATION":87.917,"RA_OF_ASC_NODE":335.0901,"ARG_OF_PERICENTER":101.5094,"MEAN_ANOMALY":258.6293,"EPHEMERIS_TYPE":0,"CLASSIFICATION_TYPE":"U","NORAD_CAT_ID":55171,"ELEMENT_SET_NO":999,"REV_AT_EPOCH":16990,"BSTAR":-0.00010438,"MEAN_MOTION_DOT":-2.8e-07,"MEAN_MOTION_DDOT":0.0},{"OBJECT_NAME":"ONEWEB-0709","OBJECT_ID":"2023-004AJ","EPOCH":"2026-06-19T00:51:04.748832","MEAN_MOTION":13.11415532,"ECCENTRICITY":0.0001877,"INCLINATION":87.8884,"RA_OF_ASC_NODE":20.7113,"ARG_OF_PERICENTER":114.2014,"MEAN_ANOMALY":245.9311,"EPHEMERIS_TYPE":0,"CLASSIFICATION_TYPE":"U","NORAD_CAT_ID":55172,"ELEMENT_SET_NO":999,"REV_AT_EPOCH":16611,"BSTAR":0.001211,"MEAN_MOTION_DOT":4.42e-06,"MEAN_MOTION_DDOT":0.0},{"OBJECT_NAME":"ONEWEB-0710","OBJECT_ID":"2023-004AK","EPOCH":"2026-06-19T06:05:50.291520","MEAN_MOTION":13.17649973,"ECCENTRICITY":0.000201,"INCLINATION":87.9131,"RA_OF_ASC_NODE":5.4544,"ARG_OF_PERICENTER":86.8239,"MEAN_ANOMALY":273.3123,"EPHEMERIS_TYPE":0,"CLASSIFICATION_TYPE":"U","NORAD_CAT_ID":55173,"ELEMENT_SET_NO":999,"REV_AT_EPOCH":16785,"BSTAR":-1.9156e-05,"MEAN_MOTION_DOT":5e-08,"MEAN_MOTION_DDOT":0.0},{"OBJECT_NAME":"ONEWEB-0711","OBJECT_ID":"2023-004AL","EPOCH":"2026-06-19T01:59:25.107072","MEAN_MOTION":13.11419176,"ECCENTRICITY":0.0002495,"INCLINATION":87.8884,"RA_OF_ASC_NODE":20.6895,"ARG_OF_PERICENTER":79.8733,"MEAN_ANOMALY":280.2676,"EPHEMERIS_TYPE":0,"CLASSIFICATION_TYPE":"U","NORAD_CAT_ID":55174,"ELEMENT_SET_NO":999,"REV_AT_EPOCH":16608,"BSTAR":-0.0014871,"MEAN_MOTION_DOT":-5.14e-06,"MEAN_MOTION_DDOT":0.0},{"OBJECT_NAME":"ONEWEB-0713","OBJECT_ID":"2023-004AM","EPOCH":"2026-06-19T02:26:17.961792","MEAN_MOTION":13.11417907,"ECCENTRICITY":0.0002205,"INCLINATION":87.8888,"RA_OF_ASC_NODE":20.6872,"ARG_OF_PERICENTER":82.6668,"MEAN_ANOMALY":277.471,"EPHEMERIS_TYPE":0,"CLASSIFICATION_TYPE":"U","NORAD_CAT_ID":55175,"ELEMENT_SET_NO":999,"REV_AT_EPOCH":16607,"BSTAR":0.00098559,"MEAN_MOTION_DOT":3.62e-06,"MEAN_MOTION_DDOT":0.0},{"OBJECT_NAME":"ONEWEB-0715","OBJECT_ID":"2023-004AN","EPOCH":"2026-06-19T02:18:57.164544","MEAN_MOTION":13.11420471,"ECCENTRICITY":0.0002125,"INCLINATION":87.8885,"RA_OF_ASC_NODE":20.689,"ARG_OF_PERICENTER":104.4374,"MEAN_ANOMALY":255.699,"EPHEMERIS_TYPE":0,"CLASSIFICATION_TYPE":"U","NORAD_CAT_ID":55176,"ELEMENT_SET_NO":999,"REV_AT_EPOCH":16611,"BSTAR":0.00060221,"MEAN_MOTION_DOT":2.26e-06,"MEAN_MOTION_DDOT":0.0},{"OBJECT_NAME":"ONEWEB-0716","OBJECT_ID":"2023-004AP","EPOCH":"2026-06-19T05:56:07.066464","MEAN_MOTION":13.17650244,"ECCENTRICITY":0.0001636,"INCLINATION":87.9131,"RA_OF_ASC_NODE":5.4585,"ARG_OF_PERICENTER":86.9927,"MEAN_ANOMALY":273.1392,"EPHEMERIS_TYPE":0,"CLASSIFICATION_TYPE":"U","NORAD_CAT_ID":55177,"ELEMENT_SET_NO":999,"REV_AT_EPOCH":16785,"BSTAR":-0.00011115,"MEAN_MOTION_DOT":-3e-07,"MEAN_MOTION_DDOT":0.0},{"OBJECT_NAME":"ONEWEB-0717","OBJECT_ID":"2023-004AQ","EPOCH":"2026-06-19T01:53:07.809504","MEAN_MOTION":13.17649093,"ECCENTRICITY":0.0002443,"INCLINATION":87.9143,"RA_OF_ASC_NODE":5.4798,"ARG_OF_PERICENTER":88.7468,"MEAN_ANOMALY":271.3944,"EPHEMERIS_TYPE":0,"CLASSIFICATION_TYPE":"U","NORAD_CAT_ID":55178,"ELEMENT_SET_NO":999,"REV_AT_EPOCH":16788,"BSTAR":-4.9241000000000005e-05,"MEAN_MOTION_DOT":-6e-08,"MEAN_MOTION_DDOT":0.0},{"OBJECT_NAME":"ONEWEB-0719","OBJECT_ID":"2023-004AR","EPOCH":"2026-06-19T05:46:24.651840","MEAN_MOTION":13.1764986,"ECCENTRICITY":0.0001734,"INCLINATION":87.914,"RA_OF_ASC_NODE":5.428,"ARG_OF_PERICENTER":82.9767,"MEAN_ANOMALY":277.1561,"EPHEMERIS_TYPE":0,"CLASSIFICATION_TYPE":"U","NORAD_CAT_ID":55179,"ELEMENT_SET_NO":999,"REV_AT_EPOCH":16785,"BSTAR":1.1278000000000001e-05,"MEAN_MOTION_DOT":1.7e-07,"MEAN_MOTION_DDOT":0.0},{"OBJECT_NAME":"ONEWEB-0530","OBJECT_ID":"2023-029A","EPOCH":"2026-06-19T06:53:06.684288","MEAN_MOTION":13.20771607,"ECCENTRICITY":0.0002267,"INCLINATION":87.9187,"RA_OF_ASC_NODE":274.0504,"ARG_OF_PERICENTER":90.6251,"MEAN_ANOMALY":269.5142,"EPHEMERIS_TYPE":0,"CLASSIFICATION_TYPE":"U","NORAD_CAT_ID":55796,"ELEMENT_SET_NO":999,"REV_AT_EPOCH":16142,"BSTAR":-4.1830000000000004e-05,"MEAN_MOTION_DOT":-4e-08,"MEAN_MOTION_DDOT":0.0},{"OBJECT_NAME":"ONEWEB-0534","OBJECT_ID":"2023-029B","EPOCH":"2026-06-19T01:08:51.690336","MEAN_MOTION":13.20771838,"ECCENTRICITY":0.0001859,"INCLINATION":87.9188,"RA_OF_ASC_NODE":274.0986,"ARG_OF_PERICENTER":100.9113,"MEAN_ANOMALY":259.2229,"EPHEMERIS_TYPE":0,"CLASSIFICATION_TYPE":"U","NORAD_CAT_ID":55797,"ELEMENT_SET_NO":999,"REV_AT_EPOCH":16139,"BSTAR":1.4426e-05,"MEAN_MOTION_DOT":1.9e-07,"MEAN_MOTION_DDOT":0.0},{"OBJECT_NAME":"ONEWEB-0556","OBJECT_ID":"2023-029C","EPOCH":"2026-06-19T04:56:43.692000","MEAN_MOTION":13.20773931,"ECCENTRICITY":0.0001513,"INCLINATION":87.9185,"RA_OF_ASC_NODE":274.0665,"ARG_OF_PERICENTER":76.6208,"MEAN_ANOMALY":283.5094,"EPHEMERIS_TYPE":0,"CLASSIFICATION_TYPE":"U","NORAD_CAT_ID":55798,"ELEMENT_SET_NO":999,"REV_AT_EPOCH":16141,"BSTAR":8.4908e-05,"MEAN_MOTION_DOT":4.8e-07,"MEAN_MOTION_DDOT":0.0},{"OBJECT_NAME":"ONEWEB-0562","OBJECT_ID":"2023-029D","EPOCH":"2026-06-19T06:26:25.971360","MEAN_MOTION":13.20771185,"ECCENTRICITY":0.0002214,"INCLINATION":87.9187,"RA_OF_ASC_NODE":274.0349,"ARG_OF_PERICENTER":77.4136,"MEAN_ANOMALY":282.7245,"EPHEMERIS_TYPE":0,"CLASSIFICATION_TYPE":"U","NORAD_CAT_ID":55799,"ELEMENT_SET_NO":999,"REV_AT_EPOCH":16142,"BSTAR":5.7449e-05,"MEAN_MOTION_DOT":3.6e-07,"MEAN_MOTION_DDOT":0.0},{"OBJECT_NAME":"ONEWEB-0563","OBJECT_ID":"2023-029E","EPOCH":"2026-06-19T06:19:10.069536","MEAN_MOTION":13.20772131,"ECCENTRICITY":0.0001766,"INCLINATION":87.9184,"RA_OF_ASC_NODE":274.0663,"ARG_OF_PERICENTER":103.9092,"MEAN_ANOMALY":256.2238,"EPHEMERIS_TYPE":0,"CLASSIFICATION_TYPE":"U","NORAD_CAT_ID":55800,"ELEMENT_SET_NO":999,"REV_AT_EPOCH":16141,"BSTAR":-1.4937000000000001e-05,"MEAN_MOTION_DOT":7e-08,"MEAN_MOTION_DDOT":0.0},{"OBJECT_NAME":"ONEWEB-0564","OBJECT_ID":"2023-029F","EPOCH":"2026-06-19T06:09:28.635552","MEAN_MOTION":13.20771091,"ECCENTRICITY":0.0002122,"INCLINATION":87.9187,"RA_OF_ASC_NODE":274.041,"ARG_OF_PERICENTER":90.1083,"MEAN_ANOMALY":270.0294,"EPHEMERIS_TYPE":0,"CLASSIFICATION_TYPE":"U","NORAD_CAT_ID":55801,"ELEMENT_SET_NO":999,"REV_AT_EPOCH":16142,"BSTAR":0.00014706,"MEAN_MOTION_DOT":7.3e-07,"MEAN_MOTION_DDOT":0.0},{"OBJECT_NAME":"ONEWEB-0638","OBJECT_ID":"2023-029G","EPOCH":"2026-06-19T07:06:16.490016","MEAN_MOTION":13.14504361,"ECCENTRICITY":0.0001715,"INCLINATION":87.8959,"RA_OF_ASC_NODE":289.3313,"ARG_OF_PERICENTER":83.8515,"MEAN_ANOMALY":276.281,"EPHEMERIS_TYPE":0,"CLASSIFICATION_TYPE":"U","NORAD_CAT_ID":55802,"ELEMENT_SET_NO":999,"REV_AT_EPOCH":15967,"BSTAR":-0.00022499,"MEAN_MOTION_DOT":-7.1e-07,"MEAN_MOTION_DDOT":0.0},{"OBJECT_NAME":"ONEWEB-0639","OBJECT_ID":"2023-029H","EPOCH":"2026-06-19T01:53:43.178208","MEAN_MOTION":13.19725663,"ECCENTRICITY":0.0001391,"INCLINATION":87.917,"RA_OF_ASC_NODE":304.5989,"ARG_OF_PERICENTER":129.8389,"MEAN_ANOMALY":230.2866,"EPHEMERIS_TYPE":0,"CLASSIFICATION_TYPE":"U","NORAD_CAT_ID":55803,"ELEMENT_SET_NO":999,"REV_AT_EPOCH":15915,"BSTAR":0.00010680000000000001,"MEAN_MOTION_DOT":5.6e-07,"MEAN_MOTION_DDOT":0.0},{"OBJECT_NAME":"ONEWEB-0640","OBJECT_ID":"2023-029J","EPOCH":"2026-06-19T07:19:57.726336","MEAN_MOTION":13.14503353,"ECCENTRICITY":0.0001318,"INCLINATION":87.8955,"RA_OF_ASC_NODE":289.3202,"ARG_OF_PERICENTER":86.9724,"MEAN_ANOMALY":273.1557,"EPHEMERIS_TYPE":0,"CLASSIFICATION_TYPE":"U","NORAD_CAT_ID":55804,"ELEMENT_SET_NO":999,"REV_AT_EPOCH":15969,"BSTAR":0.00042831000000000005,"MEAN_MOTION_DOT":1.72e-06,"MEAN_MOTION_DDOT":0.0},{"OBJECT_NAME":"ONEWEB-0641","OBJECT_ID":"2023-029K","EPOCH":"2026-06-19T07:14:24.878976","MEAN_MOTION":13.19725555,"ECCENTRICITY":0.0001807,"INCLINATION":87.918,"RA_OF_ASC_NODE":304.5436,"ARG_OF_PERICENTER":104.8853,"MEAN_ANOMALY":255.248,"EPHEMERIS_TYPE":0,"CLASSIFICATION_TYPE":"U","NORAD_CAT_ID":55805,"ELEMENT_SET_NO":999,"REV_AT_EPOCH":15919,"BSTAR":0.000182,"MEAN_MOTION_DOT":8.6e-07,"MEAN_MOTION_DDOT":0.0},{"OBJECT_NAME":"ONEWEB-0642","OBJECT_ID":"2023-029L","EPOCH":"2026-06-19T01:40:04.410336","MEAN_MOTION":13.19725173,"ECCENTRICITY":0.0001647,"INCLINATION":87.9172,"RA_OF_ASC_NODE":304.6016,"ARG_OF_PERICENTER":125.8587,"MEAN_ANOMALY":234.2699,"EPHEMERIS_TYPE":0,"CLASSIFICATION_TYPE":"U","NORAD_CAT_ID":55806,"ELEMENT_SET_NO":999,"REV_AT_EPOCH":15915,"BSTAR":9.511e-05,"MEAN_MOTION_DOT":5.1e-07,"MEAN_MOTION_DDOT":0.0},{"OBJECT_NAME":"ONEWEB-0643","OBJECT_ID":"2023-029M","EPOCH":"2026-06-19T01:07:45.113952","MEAN_MOTION":13.1450319,"ECCENTRICITY":0.0001995,"INCLINATION":87.8958,"RA_OF_ASC_NODE":289.359,"ARG_OF_PERICENTER":120.849,"MEAN_ANOMALY":239.2836,"EPHEMERIS_TYPE":0,"CLASSIFICATION_TYPE":"U","NORAD_CAT_ID":55807,"ELEMENT_SET_NO":999,"REV_AT_EPOCH":15963,"BSTAR":-0.00057359,"MEAN_MOTION_DOT":-2e-06,"MEAN_MOTION_DDOT":0.0},{"OBJECT_NAME":"ONEWEB-0644","OBJECT_ID":"2023-029N","EPOCH":"2026-06-19T01:33:14.552928","MEAN_MOTION":13.19724509,"ECCENTRICITY":0.0001771,"INCLINATION":87.917,"RA_OF_ASC_NODE":304.604,"ARG_OF_PERICENTER":110.6866,"MEAN_ANOMALY":249.4456,"EPHEMERIS_TYPE":0,"CLASSIFICATION_TYPE":"U","NORAD_CAT_ID":55808,"ELEMENT_SET_NO":999,"REV_AT_EPOCH":15915,"BSTAR":0.00014198,"MEAN_MOTION_DOT":7e-07,"MEAN_MOTION_DDOT":0.0}]